GORIZONT 25             
<<<<<<< .mine
1 21922U 92017A   13102.02688828 -.00000076  00000-0  10000-3 0  7642
2 21922  13.8634  27.3500 0028395 348.9955  10.8880  0.99858563 76876
=======
1 21922U 92017A   13109.03647247 -.00000150  00000-0  10000-3 0  7676
2 21922  13.8727  27.2723 0028227 348.2417  11.6599  0.99859810 76945
>>>>>>> .r6620
GORIZONT 26             
<<<<<<< .mine
1 22041U 92043A   13102.62429267 -.00000274  00000-0  10000-3 0  3927
2 22041  13.7936  28.8080 0030298 136.3496 223.8275  0.99244919 75727
=======
1 22041U 92043A   13107.66222610 -.00000226  00000-0  10000-3 0  3948
2 22041  13.8003  28.7522 0030388 136.3072 223.8956  0.99243233 75772
>>>>>>> .r6620
GORIZONT 27             
<<<<<<< .mine
1 22245U 92082A   13101.77600969 -.00000004  00000-0  00000+0 0  8876
2 22245  13.7107  29.4131 0010217 276.6395 239.2647  1.00139706 78910
=======
1 22245U 92082A   13107.64431370  .00000027  00000-0  00000+0 0  8892
2 22245  13.7189  29.3475 0009915 277.9948 193.5635  1.00140189 78973
>>>>>>> .r6620
GORIZONT 28             
<<<<<<< .mine
1 22880U 93069A   13102.68490678 -.00000277  00000-0  10000-3 0  7755
2 22880  13.3690  32.6408 0036345  38.5002 321.7007  0.99653198 71172
=======
1 22880U 93069A   13109.70910885 -.00000211  00000-0  10000-3 0  7783
2 22880  13.3793  32.5612 0036241  38.7466 321.4763  0.99650686 71246
>>>>>>> .r6620
GORIZONT 29             
<<<<<<< .mine
1 22907U 93072A   13100.01513719  .00000052  00000-0  10000-3 0   940
2 22907  13.3283  32.5765 0008497 249.6016 110.2536  1.00155873 70977
=======
1 22907U 93072A   13105.00710280  .00000049  00000-0  10000-3 0   953
2 22907  13.3355  32.5189 0008560 249.8163 110.0453  1.00157691 71026
>>>>>>> .r6620
GORIZONT 30             
<<<<<<< .mine
1 23108U 94030A   13101.20042781 -.00000379  00000-0  10000-3 0  8993
2 23108  13.2105  33.6335 0003429  71.4320 288.5486  1.00198850 69217
=======
1 23108U 94030A   13105.19237310 -.00000373  00000-0  10000-3 0  9006
2 23108  13.2166  33.5867 0003412  72.8989 287.0902  1.00196798 69251
>>>>>>> .r6620
GORIZONT 31             
<<<<<<< .mine
1 23775U 96005A   13102.81430648 -.00000117  00000-0  10000-3 0  3993
2 23775  12.3562  39.0657 0020928 101.4194 258.7464  0.99883420 62979
=======
1 23775U 96005A   13108.82114280 -.00000055  00000-0  10000-3 0  4027
2 23775  12.3660  38.9956 0020973 101.2770 258.9206  0.99883014 63039
>>>>>>> .r6620
GORIZONT 32             
<<<<<<< .mine
1 23880U 96034A   13103.14626856 -.00000153  00000-0  10000-3 0  2390
2 23880  12.2311  39.8712 0006754 254.8845 224.1919  1.00143406 61825
=======
1 23880U 96034A   13109.41378736 -.00000125  00000-0  10000-3 0  2442
2 23880  12.2413  39.7974 0007050 255.5035 323.2193  1.00142818 61883
>>>>>>> .r6620
GORIZONT 33             
<<<<<<< .mine
1 26372U 00029A   13101.40993465 -.00000065  00000-0  00000+0 0   584
2 26372   9.7034  48.7239 0004311  13.5003 170.3040  1.00387421 47146
=======
1 26372U 00029A   13107.43583280 -.00000072  00000-0  00000+0 0   604
2 26372   9.7147  48.6546 0004695  16.4528 185.1998  1.00387401 47201
>>>>>>> .r6620
